[{"OBJECT_NAME":"STARLINK-36158","OBJECT_ID":"2025-298F","EPOCH":"2026-03-09T21:39:48.216096","MEAN_MOTION":14.98330434,"ECCENTRICITY":0.00024965,"INCLINATION":70.0011,"RA_OF_ASC_NODE":13.7454,"ARG_OF_PERICENTER":273.3529,"MEAN_ANOMALY":86.7344,"EPHEMERIS_TYPE":0,"CLASSIFICATION_TYPE":"U","NORAD_CAT_ID":67080,"ELEMENT_SET_NO":999,"REV_AT_EPOCH":1325,"BSTAR":0.00042338517,"MEAN_MOTION_DOT":4.962e-5,"MEAN_MOTION_DDOT":0},{"OBJECT_NAME":"CZ-6A DEB","OBJECT_ID":"2022-151TF","EPOCH":"2026-03-09T20:10:56.828064","MEAN_MOTION":14.824189,"ECCENTRICITY":0.01303169,"INCLINATION":98.7184,"RA_OF_ASC_NODE":180.8188,"ARG_OF_PERICENTER":97.1353,"MEAN_ANOMALY":264.4696,"EPHEMERIS_TYPE":0,"CLASSIFICATION_TYPE":"U","NORAD_CAT_ID":54966,"ELEMENT_SET_NO":999,"REV_AT_EPOCH":17789,"BSTAR":0.0010552869,"MEAN_MOTION_DOT":9.753e-5,"MEAN_MOTION_DDOT":0}]
